ORBCOMM FM24            
1 25478U 98053D   24134.89275948  .00002513  00000+0  91091-3 0  9990
2 25478  45.0090 358.8298 0001386  31.8833 328.2098 14.35687562340010
ORBCOMM FM25            
1 25479U 98053E   24134.71993183  .00002643  00000+0  95575-3 0  9995
2 25479  45.0080 357.8904 0003902  46.5175 313.5996 14.35665837340285
ORBCOMM FM26            
1 25480U 98053F   24134.86689818  .00002654  00000+0  96997-3 0  9991
2 25480  45.0075 351.3290 0005901  68.4655 291.6820 14.35109055340248
ORBCOMM FM27            
1 25481U 98053G   24134.98642629  .00002657  00000+0  96089-3 0  9999
2 25481  45.0065 356.8963 0000298 148.2707 211.8158 14.35651057340291
ORBCOMM FM28            
1 25482U 98053H   24134.76317805  .00003129  00000+0  11129-2 0  9997
2 25482  45.0054 296.4065 0003847 112.9337 247.1917 14.36085990341061
ORBCOMM FM30            
1 25980U 99065A   24134.82843201  .00002005  00000+0  74284-3 0  9999
2 25980  45.0295 177.0409 0006062 189.0736 171.0003 14.35246858277034
ORBCOMM FM31            
1 25981U 99065B   24135.14201824  .00002318  00000+0  85124-3 0  9997
2 25981  45.0209 169.2509 0004325 224.7580 135.2919 14.35248876277601
ORBCOMM FM32            
1 25982U 99065C   24134.84746708  .00002076  00000+0  78330-3 0  9991
2 25982  45.0137 184.4715 0006771 212.9572 147.0854 14.34223362277226
